QIANFAN-163             
1 69325U 26121A   26171.83152253  .00000035  00000+0  30105-4 0  9993
2 69325  89.0159 300.1473 0020476 178.2353 181.8879 13.59758614  2659
QIANFAN-164             
1 69326U 26121B   26181.33753742  .00000133  00000+0  16716-3 0  9990
2 69326  89.0179 299.1939 0021210 151.1201 209.1133 13.57846349  3946
SZ-22 MODULE            
1 69328U 25272C   26181.55181904  .00017597  00000+0  20907-3 0  9996
2 69328  41.4787 240.8328 0007639 195.1355 164.9256 15.60720318  5418
STARLINK-37733          
1 69329U 26122A   26181.83335647 -.02390406  00000+0 -73284-1 0  9999
2 69329  97.2842 211.5433 0002056  86.5198 110.9841 15.37463604  5549
STARLINK-37772          
1 69330U 26122B   26181.83335647  .00037837  00000+0  11687-2 0  9993
2 69330  97.2841 211.5561 0001292  74.1699 143.9691 15.33439929  5494
STARLINK-37768          
1 69331U 26122C   26181.66668980 -.00083175  00000+0 -15410-2 0  9990
2 69331  97.2840 211.3446 0001244 105.3524 172.6954 15.49240755  5467
STARLINK-37833          
1 69332U 26122D   26181.83335647 -.02930665  00000+0 -91864-1 0  9994
2 69332  97.2840 211.5723 0001749  97.5634 147.2270 15.36945907  5491
STARLINK-37818          
1 69333U 26122E   26181.83335647 -.02466718  00000+0 -72795-1 0  9990
2 69333  97.2841 211.5567 0001687  75.4687 139.6690 15.38754350  5542
STARLINK-37868          
1 69334U 26122F   26181.83335647  .00030320  00000+0  93960-3 0  9992
2 69334  97.2839 211.5837 0001919  96.2072 181.9733 15.33380414  5546
STARLINK-37877          
1 69335U 26122G   26180.97313177  .00052714  00000+0  96332-3 0  9998
2 69335  97.2847 210.6408 0001237  59.0708 301.0665 15.49222026  4141
STARLINK-37791          
1 69336U 26122H   26180.61688397 -.00555053  00000+0 -11205-1 0  9999
2 69336  97.2842 210.3596 0001745 179.3157 180.8096 15.48507639  4090
STARLINK-37765          
1 69337U 26122J   26181.83335647  .00030512  00000+0  94354-3 0  9996
2 69337  97.2838 211.6015 0000850  72.5358 250.5762 15.33448244  5590
STARLINK-37788          
1 69338U 26122K   26180.97506171  .00039976  00000+0  73216-3 0  9990
2 69338  97.2855 210.6374 0000745  99.7468 260.3868 15.49220813  4146
STARLINK-37743          
1 69339U 26122L   26181.00941590  .00050231  00000+0  91719-3 0  9999
2 69339  97.2850 210.7434 0000977  99.1717 260.9645 15.49256981  4153
STARLINK-37780          
1 69340U 26122M   26180.60227812  .00057799  00000+0  10560-2 0  9990
2 69340  97.2848 210.3789 0001802  72.0229 288.1219 15.49205677  4095
STARLINK-37781          
1 69341U 26122N   26180.97622786  .00040847  00000+0  74787-3 0  9998
2 69341  97.2854 210.6366 0000610  82.9047 277.2273 15.49225622  4148
STARLINK-37782          
1 69342U 26122P   26181.83335647  .00008008  00000+0  25029-3 0  9990
2 69342  97.2846 211.6330 0001731  76.4227 321.7249 15.33420311  5543
STARLINK-37776          
1 69343U 26122Q   26181.83335647  .00020552  00000+0  57056-3 0  9994
2 69343  97.2844 211.6334 0000850  47.0529 352.3024 15.36926355  5549
STARLINK-37786          
1 69344U 26122R   26181.51990402  .00040245  00000+0  73698-3 0  9997
2 69344  97.2839 211.2763 0000616 104.1808 255.9511 15.49223560  4237
STARLINK-37785          
1 69345U 26122S   26179.61357241 -.00392328  00000+0 -77711-2 0  9997
2 69345  97.2842 209.4304 0002148 163.9671 196.1649 15.48462265  3946
STARLINK-37773          
1 69346U 26122T   26181.83019351  .00066128  00000+0  13003-2 0  9990
2 69346  97.2837 211.6198 0002975 175.0297 185.0983 15.47046959  4286
STARLINK-37744          
1 69347U 26122U   26180.97215280  .00217744  00000+0  38767-2 0  9990
2 69347  97.2826 210.6440 0001681  73.5692 286.5744 15.49328235  4147
STARLINK-37775          
1 69348U 26122V   26181.66668980 -.02800312  00000+0 -61939-1 0  9996
2 69348  97.2840 211.4534 0002529  94.8847  76.8502 15.47766168  5510
STARLINK-37777          
1 69349U 26122W   26181.50559562  .00082661  00000+0  15031-2 0  9993
2 69349  97.2835 211.2960 0001226  74.6623 285.4764 15.49236331  4239
STARLINK-37779          
1 69350U 26122X   26180.97373035  .00035770  00000+0  65573-3 0  9990
2 69350  97.2847 210.7935 0001112  80.3369 279.8008 15.49217403  4153
STARLINK-37549          
1 69351U 26122Y   26181.53068451  .00039403  00000+0  72175-3 0  9990
2 69351  97.2858 211.2612 0000555 144.4806 215.6482 15.49220748  4231
STARLINK-37778          
1 69352U 26122Z   26181.07058859  .00045988  00000+0  84154-3 0  9996
2 69352  97.2830 210.8178 0001375  99.1878 260.9529 15.49215192  4164
STARLINK-37651          
1 69353U 26123A   26181.51140769  .00236215  00000+0  11612-2 0  9992
2 69353  53.1561 175.0288 0002951 168.0707 192.0386 15.80995168  4146
STARLINK-37652          
1 69354U 26123B   26181.25968271  .00246080  00000+0  12109-2 0  9993
2 69354  53.1573 176.3060 0001426  42.1138 317.9994 15.80948151  4107
