OBJECT_NAME,OBJECT_ID,EPOCH,MEAN_MOTION,ECCENTRICITY,INCLINATION,RA_OF_ASC_NODE,ARG_OF_PERICENTER,MEAN_ANOMALY,EPHEMERIS_TYPE,CLASSIFICATION_TYPE,NORAD_CAT_ID,ELEMENT_SET_NO,REV_AT_EPOCH,BSTAR,MEAN_MOTION_DOT,MEAN_MOTION_DDOT
QIANFAN-163,2026-121A,2026-06-20T19:57:23.546592,13.59758614,.00204763,89.0159,300.1473,178.2353,181.8879,0,U,69325,999,265,.30105417E-4,.35E-6,0
QIANFAN-164,2026-121B,2026-06-30T08:06:03.233088,13.57846349,.00212106,89.0179,299.1939,151.1201,209.1133,0,U,69326,999,394,.16716083E-3,.133E-5,0
SZ-22 MODULE,2025-272C,2026-06-30T13:14:37.165056,15.60720318,.00076397,41.4787,240.8328,195.1355,164.9256,0,U,69328,999,541,.20907399E-3,.17597E-3,0
STARLINK-37733,2026-122A,2026-06-30T20:00:01.999008,15.37463604,.0002056,97.2842,211.5433,86.5198,110.9841,0,U,69329,999,554,-.73284E-1,-.2390406E-1,0
STARLINK-37772,2026-122B,2026-06-30T20:00:01.999008,15.33439929,.0001292,97.2841,211.5561,74.1699,143.9691,0,U,69330,999,549,.11687E-2,.37837E-3,0
STARLINK-37768,2026-122C,2026-06-30T16:00:01.998720,15.49240755,.0001244,97.2840,211.3446,105.3524,172.6954,0,U,69331,999,546,-.1541E-2,-.83175E-3,0
STARLINK-37833,2026-122D,2026-06-30T20:00:01.999008,15.36945907,.0001749,97.2840,211.5723,97.5634,147.2270,0,U,69332,999,549,-.91864E-1,-.2930665E-1,0
STARLINK-37818,2026-122E,2026-06-30T20:00:01.999008,15.38754350,.0001687,97.2841,211.5567,75.4687,139.6690,0,U,69333,999,554,-.72795E-1,-.2466718E-1,0
STARLINK-37868,2026-122F,2026-06-30T20:00:01.999008,15.33380414,.0001919,97.2839,211.5837,96.2072,181.9733,0,U,69334,999,554,.9396E-3,.3032E-3,0
STARLINK-37877,2026-122G,2026-06-29T23:21:18.584928,15.49222026,.00012371,97.2847,210.6408,59.0708,301.0665,0,U,69335,999,414,.9633216E-3,.52714E-3,0
STARLINK-37791,2026-122H,2026-06-29T14:48:18.775008,15.48507639,.00017451,97.2842,210.3596,179.3157,180.8096,0,U,69336,999,409,-.11204873E-1,-.555053E-2,0
STARLINK-37765,2026-122J,2026-06-30T20:00:01.999008,15.33448244,.000085,97.2838,211.6015,72.5358,250.5762,0,U,69337,999,559,.94354E-3,.30512E-3,0
STARLINK-37788,2026-122K,2026-06-29T23:24:05.331744,15.49220813,.00007457,97.2855,210.6374,99.7468,260.3868,0,U,69338,999,414,.73216489E-3,.39976E-3,0
STARLINK-37743,2026-122L,2026-06-30T00:13:33.533760,15.49256981,.00009773,97.2850,210.7434,99.1717,260.9645,0,U,69339,999,415,.91718737E-3,.50231E-3,0
STARLINK-37780,2026-122M,2026-06-29T14:27:16.829568,15.49205677,.00018024,97.2848,210.3789,72.0229,288.1219,0,U,69340,999,409,.1055976E-2,.57799E-3,0
STARLINK-37781,2026-122N,2026-06-29T23:25:46.087104,15.49225622,.00006102,97.2854,210.6366,82.9047,277.2273,0,U,69341,999,414,.74786511E-3,.40847E-3,0
STARLINK-37782,2026-122P,2026-06-30T20:00:01.999008,15.33420311,.0001731,97.2846,211.6330,76.4227,321.7249,0,U,69342,999,554,.25029E-3,.8008E-4,0
STARLINK-37776,2026-122Q,2026-06-30T20:00:01.999008,15.36926355,.000085,97.2844,211.6334,47.0529,352.3024,0,U,69343,999,554,.57056E-3,.20552E-3,0
STARLINK-37786,2026-122R,2026-06-30T12:28:39.707328,15.49223560,.00006164,97.2839,211.2763,104.1808,255.9511,0,U,69344,999,423,.73698027E-3,.40245E-3,0
STARLINK-37785,2026-122S,2026-06-28T14:43:32.656224,15.48462265,.00021489,97.2842,209.4304,163.9671,196.1649,0,U,69345,999,394,-.77710529E-2,-.392328E-2,0
STARLINK-37773,2026-122T,2026-06-30T19:55:28.719264,15.47046959,.0002975,97.2837,211.6198,175.0297,185.0983,0,U,69346,999,428,.13003E-2,.66128E-3,0
STARLINK-37744,2026-122U,2026-06-29T23:19:54.001920,15.49328235,.0001681,97.2826,210.6440,73.5692,286.5744,0,U,69347,999,414,.38767086E-2,.217744E-2,0
STARLINK-37775,2026-122V,2026-06-30T16:00:01.998720,15.47766168,.0002529,97.2840,211.4534,94.8847,76.8502,0,U,69348,999,551,-.61939E-1,-.2800312E-1,0
STARLINK-37777,2026-122W,2026-06-30T12:08:03.461568,15.49236331,.00012264,97.2835,211.2960,74.6623,285.4764,0,U,69349,999,423,.15031491E-2,.82661E-3,0
STARLINK-37779,2026-122X,2026-06-29T23:22:10.302240,15.49217403,.00011123,97.2847,210.7935,80.3369,279.8008,0,U,69350,999,415,.65573234E-3,.3577E-3,0
STARLINK-37549,2026-122Y,2026-06-30T12:44:11.141664,15.49220748,.00005559,97.2858,211.2612,144.4806,215.6482,0,U,69351,999,423,.72174663E-3,.39403E-3,0
STARLINK-37778,2026-122Z,2026-06-30T01:41:38.854176,15.49215192,.00013751,97.2830,210.8178,99.1878,260.9529,0,U,69352,999,416,.84153891E-3,.45988E-3,0
STARLINK-37651,2026-123A,2026-06-30T12:16:25.624416,15.80995168,.00029513,53.1561,175.0288,168.0707,192.0386,0,U,69353,999,414,.11612079E-2,.236215E-2,0
STARLINK-37652,2026-123B,2026-06-30T06:13:56.586144,15.80948151,.00014265,53.1573,176.3060,42.1138,317.9994,0,U,69354,999,410,.12109052E-2,.24608E-2,0
